[{"OBJECT_NAME":"OBJECT F","OBJECT_ID":"2024-092F","EPOCH":"2026-03-09T21:54:46.147104","MEAN_MOTION":15.3361444,"ECCENTRICITY":0.00086458,"INCLINATION":97.6418,"RA_OF_ASC_NODE":198.4543,"ARG_OF_PERICENTER":142.6506,"MEAN_ANOMALY":217.5339,"EPHEMERIS_TYPE":0,"CLASSIFICATION_TYPE":"U","NORAD_CAT_ID":59778,"ELEMENT_SET_NO":999,"REV_AT_EPOCH":10053,"BSTAR":0.0007914277,"MEAN_MOTION_DOT":0.00025723,"MEAN_MOTION_DDOT":0},{"OBJECT_NAME":"STARLINK-34799","OBJECT_ID":"2025-195Q","EPOCH":"2026-03-09T17:11:12.263424","MEAN_MOTION":15.30206661,"ECCENTRICITY":8.149e-5,"INCLINATION":53.1611,"RA_OF_ASC_NODE":258.3469,"ARG_OF_PERICENTER":123.0217,"MEAN_ANOMALY":237.0862,"EPHEMERIS_TYPE":0,"CLASSIFICATION_TYPE":"U","NORAD_CAT_ID":65472,"ELEMENT_SET_NO":999,"REV_AT_EPOCH":2997,"BSTAR":0.00083472452,"MEAN_MOTION_DOT":0.00024449,"MEAN_MOTION_DDOT":0}]
