2024-092F               
1 59778U 24092F   26068.91303411  .00025723  00000+0  79143-3 0  9992
2 59778  97.6418 198.4543 0008646 142.6506 217.5339 15.33614440100535
STARLINK-34799          
1 65472U 25195Q   26068.71611416  .00024449  00000+0  83472-3 0  9994
2 65472  53.1611 258.3469 0000814 123.0217 237.0862 15.30206661 29974
